[{"OBJECT_NAME":"PLEIADES NEO 4","OBJECT_ID":"2021-073E","EPOCH":"2026-03-09T22:43:10.158240","MEAN_MOTION":14.81670727,"ECCENTRICITY":0.00013011,"INCLINATION":97.8928,"RA_OF_ASC_NODE":145.1333,"ARG_OF_PERICENTER":92.4306,"MEAN_ANOMALY":267.7056,"EPHEMERIS_TYPE":0,"CLASSIFICATION_TYPE":"U","NORAD_CAT_ID":49070,"ELEMENT_SET_NO":999,"REV_AT_EPOCH":24667,"BSTAR":-4.8245874e-5,"MEAN_MOTION_DOT":-4.32e-6,"MEAN_MOTION_DDOT":0},{"OBJECT_NAME":"COSMOS 2251 DEB","OBJECT_ID":"1993-036VL","EPOCH":"2026-03-09T21:05:27.441312","MEAN_MOTION":14.72105887,"ECCENTRICITY":0.00664783,"INCLINATION":74.0671,"RA_OF_ASC_NODE":234.1314,"ARG_OF_PERICENTER":233.9727,"MEAN_ANOMALY":249.2332,"EPHEMERIS_TYPE":0,"CLASSIFICATION_TYPE":"U","NORAD_CAT_ID":34574,"ELEMENT_SET_NO":999,"REV_AT_EPOCH":90060,"BSTAR":0.0014261966,"MEAN_MOTION_DOT":9.271e-5,"MEAN_MOTION_DDOT":0}]
